NAVSTAR 77 (USA 289)    
1 43873U 18109A   24281.79242584  .00000047  00000+0  00000+0 0  9991
2 43873  55.3420 116.5768 0031114 191.8131 182.3083  2.00560561 42695
